     2.100          NAVIGATION                              RINEX VERSION / TYPE
fic2rin                                 07/01/2013 00:27:24 PGM / RUN BY / DATE
                                                            END OF HEADER
17 13  6 30 22  0  0.0  .364240258932D-05 -.386535248253D-11  .000000000000D+00
     .120000000000D+02 -.238750000000D+02  .469698136241D-08  .298330176629D+01
    -.123307108879D-05  .837046292145D-02  .587850809097D-05  .515364533615D+04
     .792000000000D+05 -.558793544769D-08 -.309813652429D+01 -.182539224625D-06
     .966037497214D+00  .266218750000D+03 -.219006383807D+01 -.799961893052D-08
     .585738684082D-10  .100000000000D+01  .174700000000D+04  .000000000000D+00
     .240000000000D+01  .000000000000D+00 -.102445483208D-07  .120000000000D+02
     .720060000000D+05  .400000000000D+01
18 13  6 30 22  0  0.0  .261271838099D-03  .181898940355D-11  .000000000000D+00
     .260000000000D+02  .689375000000D+02  .507878298027D-08 -.180206412176D+01
     .347942113876D-05  .145087797428D-01  .922381877899D-05  .515361449814D+04
     .792000000000D+05  .329688191414D-06 -.104438845493D+01 -.115483999252D-06
     .926933449722D+00  .183281250000D+03 -.209731089513D+01 -.810176604250D-08
    -.500020827875D-11  .100000000000D+01  .174700000000D+04  .000000000000D+00
     .240000000000D+01  .000000000000D+00 -.111758708954D-07  .260000000000D+02
     .720060000000D+05  .400000000000D+01
19 13  6 30 22  0  0.0 -.385214574635D-03 -.295585778076D-11  .000000000000D+00
     .880000000000D+02 -.194062500000D+02  .483591572101D-08  .223878400451D+01
    -.966712832451D-06  .941282184795D-02  .636279582977D-05  .515371383476D+04
     .792000000000D+05 -.275671482086D-06 -.304631511050D+01  .819563865662D-07
     .963249415273D+00  .260343750000D+03  .328520878728D+00 -.814248202420D-08
     .154649298907D-09  .100000000000D+01  .174700000000D+04  .000000000000D+00
     .240000000000D+01  .000000000000D+00 -.149011611938D-07  .880000000000D+02
     .720060000000D+05  .400000000000D+01
20 13  6 30 22  0  0.0  .106652732939D-03  .227373675443D-11  .000000000000D+00
     .100000000000D+03  .492812500000D+02  .517128683343D-08 -.130075766978D+01
     .250525772572D-05  .536920130253D-02  .889599323273D-05  .515372287750D+04
     .792000000000D+05  .409781932831D-07 -.109780472884D+01  .149011611938D-06
     .927678711393D+00  .190656250000D+03  .129461074402D+01 -.835284792964D-08
    -.153934983439D-09  .100000000000D+01  .174700000000D+04  .000000000000D+00
     .240000000000D+01  .000000000000D+00 -.791624188423D-08  .100000000000D+03
     .720060000000D+05  .400000000000D+01
21 13  6 30 22  0  0.0 -.305950175971D-03 -.204636307899D-11  .000000000000D+00
     .350000000000D+02 -.243125000000D+02  .544058376501D-08 -.762488956977D+00
    -.115111470222D-05  .204506184673D-01  .858865678310D-05  .515366516304D+04
     .792000000000D+05 -.204890966415D-07 -.209214254015D+01  .381842255592D-06
     .931418544430D+00  .198000000000D+03 -.212362817988D+01 -.870071956275D-08
    -.381444460121D-09  .100000000000D+01  .174700000000D+04  .000000000000D+00
     .240000000000D+01  .000000000000D+00 -.111758708954D-07  .350000000000D+02
     .720060000000D+05  .400000000000D+01
22 13  6 30 22  0  0.0  .173732172698D-03  .159161572810D-11  .000000000000D+00
     .590000000000D+02  .584062500000D+02  .508842623909D-08 -.238330754971D+01
     .299327075481D-05  .675872096326D-02  .964477658272D-05  .515365188408D+04
     .792000000000D+05  .447034835815D-07 -.104184991316D+01 -.800937414169D-07
     .924683060395D+00  .174187500000D+03 -.203946248414D+01 -.817319758934D-08
    -.100004165575D-10  .100000000000D+01  .174700000000D+04  .000000000000D+00
     .240000000000D+01  .000000000000D+00 -.172294676304D-07  .590000000000D+02
     .720060000000D+05  .400000000000D+01
23 13  6 30 22  0  0.0  .712289474905D-04 -.352429196937D-11  .000000000000D+00
     .610000000000D+02  .455937500000D+02  .467055169008D-08  .176550073288D+01
     .244937837124D-05  .872959848493D-02  .492669641972D-05  .515369490242D+04
     .792000000000D+05 -.782310962677D-07  .153674189947D-01  .122934579849D-06
     .955714721537D+00  .283593750000D+03 -.287006929418D+01 -.830606026646D-08
    -.106075847056D-09  .100000000000D+01  .174700000000D+04  .000000000000D+00
     .240000000000D+01  .000000000000D+00 -.200234353542D-07  .610000000000D+02
     .720060000000D+05  .400000000000D+01
24 13  6 30 22  0  0.0 -.916654244065D-05 -.682121026330D-12  .000000000000D+00
     .360000000000D+02 -.423750000000D+02  .451090218290D-08  .871540798350D+00
    -.235810875893D-05  .947721884586D-03  .690110027790D-05  .515367814255D+04
     .792000000000D+05  .260770320892D-07  .104181323781D+01  .204890966415D-07
     .958761087516D+00  .246218750000D+03  .408198492477D+00 -.820641325862D-08
    -.150006248362D-09  .100000000000D+01  .174700000000D+04  .000000000000D+00
     .240000000000D+01  .000000000000D+00  .279396772385D-08  .360000000000D+02
     .720060000000D+05  .400000000000D+01
25 13  6 30 22  0  0.0  .116179697216D-03  .488853402203D-11  .000000000000D+00
     .200000000000D+02 -.155625000000D+02  .427303513192D-08 -.107860748248D+01
    -.720843672752D-06  .273896637373D-02  .888295471668D-05  .515376198387D+04
     .792000000000D+05  .745058059692D-07  .209186000239D+01  .391155481339D-07
     .973231528531D+00  .214937500000D+03  .718755316507D+00 -.792068707127D-08
     .352157525917D-09  .100000000000D+01  .174700000000D+04  .000000000000D+00
     .240000000000D+01  .000000000000D+00  .558793544769D-08  .200000000000D+02
     .720060000000D+05  .400000000000D+01
26 13  6 30 22  0  0.0  .768434256315D-04  .163709046319D-10  .000000000000D+00
     .700000000000D+01  .274062500000D+02  .418838874892D-08  .174291865103D+01
     .104121863842D-05  .210998323746D-01  .480376183987D-05  .515366485786D+04
     .792000000000D+05 -.137835741043D-06  .966372259684D-01 -.538304448128D-06
     .978937663906D+00  .296906250000D+03  .124572065087D+01 -.806855037322D-08
     .117862052285D-10  .100000000000D+01  .174700000000D+04  .000000000000D+00
     .240000000000D+01  .000000000000D+00 -.605359673500D-08  .700000000000D+01
     .720060000000D+05  .400000000000D+01
27 13  6 30 22  0  0.0 -.579981133342D-05 -.363797880709D-11  .000000000000D+00
     .300000000000D+01 -.120937500000D+02  .487841749138D-08  .229799032532D+01
    -.596046447754D-06  .224906718358D-03  .630505383015D-05  .515365807152D+04
     .792000000000D+05 -.651925802231D-07 -.314153250864D+01 -.745058059692D-08
     .960608840825D+00  .257750000000D+03  .790399932976D+00 -.817819779762D-08
     .212866009581D-09  .100000000000D+01  .174700000000D+04  .000000000000D+00
     .240000000000D+01  .000000000000D+00  .372529029846D-08  .300000000000D+01
     .720060000000D+05  .400000000000D+01
28 13  6 30 22  0  0.0  .271844677627D-03  .318323145621D-11  .000000000000D+00
     .240000000000D+02 -.746875000000D+01  .393837833498D-08 -.251070175347D+01
    -.460073351860D-06  .185908200219D-01  .821426510811D-05  .515364850235D+04
     .792000000000D+05  .219792127609D-06  .215512460717D+01  .651925802231D-07
     .983579258664D+00  .227312500000D+03 -.176794581758D+01 -.747924011180D-08
     .416088760338D-09  .100000000000D+01  .174700000000D+04  .000000000000D+00
     .240000000000D+01  .000000000000D+00 -.107102096081D-07  .240000000000D+02
     .720060000000D+05  .400000000000D+01
29 13  6 30 22  0  0.0  .449595041573D-03  .329691829393D-11  .000000000000D+00
     .520000000000D+02 -.241250000000D+02  .481734351884D-08 -.495734669545D+00
    -.113993883133D-05  .176867586561D-02  .617839396000D-05  .515362045479D+04
     .792000000000D+05  .353902578354D-07 -.308932466504D+01 -.186264514923D-07
     .966682120362D+00  .264000000000D+03 -.993135308735D+00 -.822034241026D-08
     .155363614375D-09  .100000000000D+01  .174700000000D+04  .000000000000D+00
     .240000000000D+01  .000000000000D+00 -.931322574615D-08  .520000000000D+02
     .720060000000D+05  .400000000000D+01
32 13  6 30 22  0  0.0 -.558893196285D-03  .341060513165D-12  .000000000000D+00
     .630000000000D+02  .518125000000D+02  .480412868267D-08  .682543235694D+00
     .259280204773D-05  .115579947596D-01  .866875052452D-05  .515365964127D+04
     .792000000000D+05  .255182385445D-06 -.957348201235D+00 -.502914190292D-07
     .948921038233D+00  .203250000000D+03 -.343470274733D+00 -.822998566908D-08
    -.707172313708D-10  .100000000000D+01  .174700000000D+04  .000000000000D+00
     .240000000000D+01  .000000000000D+00 -.279396772385D-08  .630000000000D+02
     .720060000000D+05  .400000000000D+01
31 13  6 30 22  0  0.0  .319355633110D-03  .113686837722D-11  .000000000000D+00
     .920000000000D+02 -.473125000000D+02  .404552565524D-08  .193118134751D+00
    -.244192779064D-05  .784516811837D-02  .640563666821D-05  .515362317467D+04
     .792000000000D+05  .465661287308D-07  .107559528295D+01 -.128522515297D-06
     .980219418599D+00  .262500000000D+03 -.735312139102D+00 -.811176645906D-08
    -.102504269714D-09  .100000000000D+01  .174700000000D+04  .000000000000D+00
     .240000000000D+01  .000000000000D+00 -.130385160446D-07  .920000000000D+02
     .720360000000D+05  .400000000000D+01
 1 13  6 30 21 59 44.0  .440767034888D-04  .477484718431D-11  .000000000000D+00
     .000000000000D+00 -.307187500000D+02  .471948229967D-08  .835809543599D+00
    -.146217644215D-05  .202411820646D-02  .830367207527D-05  .515369438362D+04
     .791840000000D+05  .558793544769D-08 -.208956135286D+01 -.130385160446D-07
     .960062338519D+00  .214906250000D+03  .270734191177D+00 -.810605193531D-08
    -.331085219600D-09  .100000000000D+01  .174700000000D+04  .000000000000D+00
     .240000000000D+01  .000000000000D+00  .838190317154D-08  .000000000000D+00
     .749160000000D+05  .400000000000D+01
